STARLINK-35759          
1 69246U 26117J   26167.79033671  .00157204  00000+0  74417-3 0  9996
2 69246  53.1577 245.4623 0001958  47.1526 312.9661 15.82043422  2912
STARLINK-37238          
1 69247U 26117K   26167.78589367  .00084922  00000+0  40745-3 0  9997
2 69247  53.1574 245.4322 0001338  50.9885 309.1257 15.82016770  2913
STARLINK-37412          
1 69248U 26117L   26167.71934714  .00119357  00000+0  56833-3 0  9997
2 69248  53.1573 245.7256 0001044  86.8907 273.2236 15.82043368  2909
STARLINK-37398          
1 69249U 26117M   26167.78655601  .00062833  00000+0  31922-3 0  9998
2 69249  53.1583 245.4367 0001115  80.0239 280.0909 15.80896998  2911
STARLINK-37499          
1 69250U 26117N   26167.71762860  .00195894  00000+0  92113-3 0  9992
2 69250  53.1573 245.7150 0000950  90.0429 270.0703 15.82072495  2903
STARLINK-37489          
1 69251U 26117P   26167.77903523  .00032170  00000+0  15761-3 0  9993
2 69251  53.1578 245.3859 0000909 109.1312 250.9810 15.81989556  2919
STARLINK-37434          
1 69252U 26117Q   26167.77607637  .00144323  00000+0  68473-3 0  9993
2 69252  53.1572 245.3648 0001345  49.4910 310.6230 15.82036431  2911
STARLINK-37368          
1 69253U 26117R   26167.83250012  .00035950  00000+0  17545-3 0  9991
2 69253  53.1577 245.0022 0000983  99.5696 260.5438 15.82014499  2928
STARLINK-37517          
1 69254U 26117S   26167.83117606  .00285653  00000+0  13235-2 0  9991
2 69254  53.1574 244.9934 0000686 111.6635 248.4461 15.82141054  2924
STARLINK-37378          
1 69255U 26117T   26167.83084618  .00348933  00000+0  16031-2 0  9996
2 69255  53.1575 244.9900 0001432  50.5540 309.5610 15.82153926  2921
STARLINK-37396          
1 69256U 26117U   26167.76522940  .00122261  00000+0  58213-3 0  9997
2 69256  53.1572 245.2891 0001105  45.5209 314.5904 15.82033926  2913
STARLINK-37508          
1 69257U 26117V   26167.70386498  .00183556  00000+0  91099-3 0  9991
2 69257  53.1578 245.6189 0001466  50.4816 309.6336 15.80941960  2900
STARLINK-37276          
1 69258U 26117W   26167.80334970  .00192021  00000+0  95138-3 0  9996
2 69258  53.1572 244.8002 0001156  67.0193 293.0952 15.80954001  2920
STARLINK-37518          
1 69259U 26117X   26167.74137318  .00196752  00000+0  97191-3 0  9993
2 69259  53.1573 245.1271 0001272  99.6144 260.5023 15.81004839  2913
STARLINK-37478          
1 69260U 26117Y   26167.80480094  .00109987  00000+0  55230-3 0  9996
2 69260  53.1579 244.8127 0000551 104.7480 255.3604 15.80928783  2927
STARLINK-37506          
1 69261U 26117Z   26167.74109247  .00137637  00000+0  68738-3 0  9998
2 69261  53.1574 245.1244 0000944 112.7532 247.3591 15.80949728  2917
STARLINK-37503          
1 69262U 26117AA  26167.67761414  .00179637  00000+0  89059-3 0  9996
2 69262  53.1574 245.4379 0001248  67.7088 292.4067 15.80976740  2905
STARLINK-37502          
1 69263U 26117AB  26167.80354771  .00153450  00000+0  76541-3 0  9993
2 69263  53.1574 244.8013 0001948  50.9854 309.1342 15.80924547  2928
STARLINK-37486          
1 69264U 26117AC  26167.80232233  .00192475  00000+0  95351-3 0  9992
2 69264  53.1572 244.7928 0000797 117.8855 242.2249 15.80955238  2920
STARLINK-37435          
1 69265U 26117AD  26167.67737340  .00130700  00000+0  65395-3 0  9995
2 69265  53.1572 245.4362 0000809 114.2746 245.8361 15.80932755  2906
STARLINK-37464          
1 69266U 26117AE  26167.79963390  .00152936  00000+0  72460-3 0  9991
2 69266  53.1568 244.7736 0001691  55.1009 305.0173 15.82038255  2920
KUIPER-00282            
1 69267U 26118A   26167.76622499 -.00049678  00000+0 -14715-2 0  9990
2 69267  51.8587  55.5958 0010836 181.0542 179.0422 15.34245328  3917
KUIPER-00383            
1 69268U 26118B   26167.82836671 -.00005111  00000+0 -13968-3 0  9991
2 69268  51.8598  55.2633 0010457 183.1680 176.9241 15.34386176  3925
KUIPER-00527            
1 69269U 26118C   26167.82380229 -.00011433  00000+0 -32210-3 0  9990
2 69269  51.8624  55.2366 0010060 174.2416 185.8687 15.34836431  3924
KUIPER-00562            
1 69270U 26118D   26167.85651806  .00019330  00000+0  50770-3 0  9990
2 69270  51.8726  54.7124 0001776 112.8785 247.2390 15.38627021  3938
KUIPER-00570            
1 69271U 26118E   26167.82608634  .00013345  00000+0  40200-3 0  9996
2 69271  51.8585  55.2474 0011453 183.5229 176.5677 15.34589629  3925
KUIPER-00572            
1 69272U 26118F   26167.81042204  .00019238  00000+0  53207-3 0  9999
2 69272  51.8683  55.1539 0007282 170.0175 190.0957 15.37011651  3922
KUIPER-00581            
1 69273U 26118G   26167.81426683  .00019215  00000+0  53753-3 0  9998
2 69273  51.8661  55.1770 0009013 173.7375 186.3725 15.36642394  4017
KUIPER-00584            
1 69274U 26118H   26167.82830459 -.00008992  00000+0 -25369-3 0  9994
2 69274  51.8602  55.2637 0009303 188.3215 171.7617 15.34498746  3928
KUIPER-00587            
1 69275U 26118J   26167.81363071  .00021632  00000+0  60278-3 0  9997
2 69275  51.8635  55.1712 0008230 176.9535 183.1502 15.36691802  3924
