OBJECT_NAME,OBJECT_ID,EPOCH,MEAN_MOTION,ECCENTRICITY,INCLINATION,RA_OF_ASC_NODE,ARG_OF_PERICENTER,MEAN_ANOMALY,EPHEMERIS_TYPE,CLASSIFICATION_TYPE,NORAD_CAT_ID,ELEMENT_SET_NO,REV_AT_EPOCH,BSTAR,MEAN_MOTION_DOT,MEAN_MOTION_DDOT
STARLINK-35759,2026-117J,2026-06-16T18:58:05.091744,15.82043422,.0001958,53.1577,245.4623,47.1526,312.9661,0,U,69246,999,291,.74417E-3,.157204E-2,0
STARLINK-37238,2026-117K,2026-06-16T18:51:41.213088,15.82016770,.0001338,53.1574,245.4322,50.9885,309.1257,0,U,69247,999,291,.40745E-3,.84922E-3,0
STARLINK-37412,2026-117L,2026-06-16T17:15:51.592896,15.82043368,.0001044,53.1573,245.7256,86.8907,273.2236,0,U,69248,999,290,.56833E-3,.119357E-2,0
STARLINK-37398,2026-117M,2026-06-16T18:52:38.439264,15.80896998,.0001115,53.1583,245.4367,80.0239,280.0909,0,U,69249,999,291,.31922E-3,.62833E-3,0
STARLINK-37499,2026-117N,2026-06-16T17:13:23.111040,15.82072495,.000095,53.1573,245.7150,90.0429,270.0703,0,U,69250,999,290,.92113E-3,.195894E-2,0
STARLINK-37489,2026-117P,2026-06-16T18:41:48.643872,15.81989556,.0000909,53.1578,245.3859,109.1312,250.9810,0,U,69251,999,291,.15761E-3,.3217E-3,0
STARLINK-37434,2026-117Q,2026-06-16T18:37:32.998368,15.82036431,.0001345,53.1572,245.3648,49.4910,310.6230,0,U,69252,999,291,.68473E-3,.144323E-2,0
STARLINK-37368,2026-117R,2026-06-16T19:58:48.010368,15.82014499,.0000983,53.1577,245.0022,99.5696,260.5438,0,U,69253,999,292,.17545E-3,.3595E-3,0
STARLINK-37517,2026-117S,2026-06-16T19:56:53.611584,15.82141054,.0000686,53.1574,244.9934,111.6635,248.4461,0,U,69254,999,292,.13235E-2,.285653E-2,0
STARLINK-37378,2026-117T,2026-06-16T19:56:25.109952,15.82153926,.0001432,53.1575,244.9900,50.5540,309.5610,0,U,69255,999,292,.16031E-2,.348933E-2,0
STARLINK-37396,2026-117U,2026-06-16T18:21:55.820160,15.82033926,.0001105,53.1572,245.2891,45.5209,314.5904,0,U,69256,999,291,.58213E-3,.122261E-2,0
STARLINK-37508,2026-117V,2026-06-16T16:53:33.934272,15.80941960,.0001466,53.1578,245.6189,50.4816,309.6336,0,U,69257,999,290,.91099E-3,.183556E-2,0
STARLINK-37276,2026-117W,2026-06-16T19:16:49.414080,15.80954001,.0001156,53.1572,244.8002,67.0193,293.0952,0,U,69258,999,292,.95138E-3,.192021E-2,0
STARLINK-37518,2026-117X,2026-06-16T17:47:34.642752,15.81004839,.0001272,53.1573,245.1271,99.6144,260.5023,0,U,69259,999,291,.97191E-3,.196752E-2,0
STARLINK-37478,2026-117Y,2026-06-16T19:18:54.801216,15.80928783,.0000551,53.1579,244.8127,104.7480,255.3604,0,U,69260,999,292,.5523E-3,.109987E-2,0
STARLINK-37506,2026-117Z,2026-06-16T17:47:10.389408,15.80949728,.0000944,53.1574,245.1244,112.7532,247.3591,0,U,69261,999,291,.68738E-3,.137637E-2,0
STARLINK-37503,2026-117AA,2026-06-16T16:15:45.861696,15.80976740,.0001248,53.1574,245.4379,67.7088,292.4067,0,U,69262,999,290,.89059E-3,.179637E-2,0
STARLINK-37502,2026-117AB,2026-06-16T19:17:06.522144,15.80924547,.0001948,53.1574,244.8013,50.9854,309.1342,0,U,69263,999,292,.76541E-3,.15345E-2,0
STARLINK-37486,2026-117AC,2026-06-16T19:15:20.649312,15.80955238,.0000797,53.1572,244.7928,117.8855,242.2249,0,U,69264,999,292,.95351E-3,.192475E-2,0
STARLINK-37435,2026-117AD,2026-06-16T16:15:25.061760,15.80932755,.0000809,53.1572,245.4362,114.2746,245.8361,0,U,69265,999,290,.65395E-3,.1307E-2,0
STARLINK-37464,2026-117AE,2026-06-16T19:11:28.368960,15.82038255,.0001691,53.1568,244.7736,55.1009,305.0173,0,U,69266,999,292,.7246E-3,.152936E-2,0
KUIPER-00282,2026-118A,2026-06-16T18:23:21.839136,15.34245328,.0010836,51.8587,55.5958,181.0542,179.0422,0,U,69267,999,391,-.14715E-2,-.49678E-3,0
KUIPER-00383,2026-118B,2026-06-16T19:52:50.883744,15.34386176,.0010457,51.8598,55.2633,183.1680,176.9241,0,U,69268,999,392,-.13968E-3,-.5111E-4,0
KUIPER-00527,2026-118C,2026-06-16T19:46:16.517856,15.34836431,.001006,51.8624,55.2366,174.2416,185.8687,0,U,69269,999,392,-.3221E-3,-.11433E-3,0
KUIPER-00562,2026-118D,2026-06-16T20:33:23.160384,15.38627021,.0001776,51.8726,54.7124,112.8785,247.2390,0,U,69270,999,393,.5077E-3,.1933E-3,0
KUIPER-00570,2026-118E,2026-06-16T19:49:33.859776,15.34589629,.0011453,51.8585,55.2474,183.5229,176.5677,0,U,69271,999,392,.402E-3,.13345E-3,0
KUIPER-00572,2026-118F,2026-06-16T19:27:00.464256,15.37011651,.0007282,51.8683,55.1539,170.0175,190.0957,0,U,69272,999,392,.53207E-3,.19238E-3,0
KUIPER-00581,2026-118G,2026-06-16T19:32:32.654112,15.36642394,.0009013,51.8661,55.1770,173.7375,186.3725,0,U,69273,999,401,.53753E-3,.19215E-3,0
KUIPER-00584,2026-118H,2026-06-16T19:52:45.516576,15.34498746,.0009303,51.8602,55.2637,188.3215,171.7617,0,U,69274,999,392,-.25369E-3,-.8992E-4,0
KUIPER-00587,2026-118J,2026-06-16T19:31:37.693344,15.36691802,.000823,51.8635,55.1712,176.9535,183.1502,0,U,69275,999,392,.60278E-3,.21632E-3,0
